FENGYUN 3D              
1 43010U 17072A   26192.53159425 -.00000048  00000+0 -70852-6 0  9990
2 43010  99.0138 167.3950 0001757  22.0375 338.0876 14.19744144448448
NOAA 20 (JPSS-1)        
1 43013U 17073A   26192.46007140  .00000008  00000+0  24766-4 0  9997
2 43013  98.7774 131.7076 0001243 127.9590 232.1698 14.19516006447912
GOES 17                 
1 43226U 18022A   26192.47588633 -.00000178  00000+0  00000+0 0  9999
2 43226   0.9965  85.3123 0000613  83.3466 202.5465  1.00270706 30662
SENTINEL-3B             
1 43437U 18039A   26192.17410468  .00000038  00000+0  33847-4 0  9992
2 43437  98.6238 259.3610 0001055 120.7417 239.3868 14.26741288427542
FENGYUN 2H              
1 43491U 18050A   26192.50933983 -.00000125  00000+0  00000+0 0  9992
2 43491   3.0900  78.7923 0002242 131.1998 341.9743  1.00267567 29683
METOP-C                 
1 43689U 18087A   26192.49242001  .00000044  00000+0  40096-4 0  9996
2 43689  98.6632 251.6503 0002227  98.4384 261.7046 14.21518411398281
GEO-KOMPSAT-2A          
1 43823U 18100A   26192.51904600 -.00000338  00000+0  00000+0 0  9998
2 43823   0.0256 120.8523 0001959 340.5295 143.1666  1.00271575 27877
METEOR-M2 2             
1 44387U 19038A   26192.54978821  .00000031  00000+0  33244-4 0  9994
2 44387  98.9157 180.1956 0000980  11.0200 349.0999 14.24372343364760
ARKTIKA-M 1             
1 47719U 21016A   26188.42887598 -.00000257  00000+0  00000+0 0  9997
2 47719  63.2524  54.6812 7295086 270.0380  14.5466  2.00614486 39194
FENGYUN 3E              
1 49008U 21062A   26192.51277056 -.00000049  00000+0 -22656-5 0  9995
2 49008  98.7502 195.6495 0002463  45.4320 314.7057 14.19905764260030
GOES 18                 
1 51850U 22021A   26192.50322435  .00000102  00000+0  00000+0 0  9991
2 51850   0.0106  96.7463 0000603  96.0492 140.7726  1.00272491  6832
NOAA 21 (JPSS-2)        
1 54234U 22150A   26192.49242926  .00000006  00000+0  23350-4 0  9998
2 54234  98.7061 130.8734 0002751 110.9885 249.1586 14.19540676189998
METEOSAT-12 (MTG-I1)    
1 54743U 22170C   26192.36225226 -.00000002  00000+0  00000+0 0  9994
2 54743   0.7209  19.0127 0003789  82.9950 317.4095  1.00266926 13222
TIANMU-1 03             
1 55973U 23039A   26192.49061561  .00009356  00000+0  18103-3 0  9996
2 55973  97.5237   7.4249 0002894  36.4923 323.6524 15.47973107184596
TIANMU-1 04             
1 55974U 23039B   26192.53514727  .00009691  00000+0  18343-3 0  9997
2 55974  97.5170   6.6271 0003380  26.6434 333.4990 15.48595695184610
TIANMU-1 05             
1 55975U 23039C   26192.53721931  .00009489  00000+0  18405-3 0  9999
2 55975  97.5217   7.0794 0003294  55.1305 305.0254 15.47897033184580
TIANMU-1 06             
1 55976U 23039D   26192.54008909  .00009702  00000+0  18429-3 0  9998
2 55976  97.5223   7.7428 0003397  47.8826 312.2713 15.48493447184615
FENGYUN 3G              
1 56232U 23055A   26192.55407076  .00013614  00000+0  21546-3 0  9992
2 56232  49.9911 220.3676 0007133  39.5299 320.6188 15.53678340183798
METEOR-M2 3             
1 57166U 23091A   26192.47946968 -.00000017  00000+0  11377-4 0  9994
2 57166  98.6070 246.9592 0005150  98.6425 261.5338 14.24048739157978
TIANMU-1 07             
1 57399U 23101A   26192.49583899  .00003882  00000+0  13584-3 0  9999
2 57399  97.2586 242.6079 0003977  72.2134 287.9540 15.30088324165367
TIANMU-1 08             
1 57400U 23101B   26192.46241522  .00003875  00000+0  13559-3 0  9997
2 57400  97.2574 242.3422 0004927  56.4277 303.7434 15.30091836165354
TIANMU-1 09             
1 57401U 23101C   26192.51067103  .00003907  00000+0  13653-3 0  9996
2 57401  97.2532 241.7928 0004574  73.1076 287.0667 15.30132272165367
TIANMU-1 10             
1 57402U 23101D   26192.47875376  .00003896  00000+0  13623-3 0  9995
2 57402  97.2611 242.8369 0005926  64.3030 295.8822 15.30105285165354
FENGYUN 3F              
1 57490U 23111A   26192.49610372  .00000005  00000+0  22941-4 0  9991
2 57490  98.6827 262.0508 0001344  78.1023 282.0304 14.19943035152313
ARKTIKA-M 2             
1 58584U 23198A   26191.19028483  .00000186  00000+0  00000+0 0  9990
2 58584  63.2187 151.7914 6909064 267.3543  18.7503  2.00608615 18787
TIANMU-1 11             
1 58645U 23205A   26192.49431608  .00003237  00000+0  12395-3 0  9992
2 58645  97.3445 213.6724 0006752 278.7399  81.3076 15.27240628141235
TIANMU-1 12             
1 58646U 23205B   26192.53183253  .00003434  00000+0  13204-3 0  9997
2 58646  97.3433 213.4577 0005576 251.1391 108.9244 15.27071626141229
TIANMU-1 13             
1 58647U 23205C   26192.49972929  .00003312  00000+0  12747-3 0  9995
2 58647  97.3461 213.7047 0005439 228.0025 132.0751 15.27063990141216
TIANMU-1 14             
1 58648U 23205D   26192.54975384  .00003369  00000+0  12945-3 0  9992
2 58648  97.3396 212.9168 0006116 235.8386 124.2274 15.27108013141228
TIANMU-1 19             
1 58660U 23208A   26192.52314758  .00005015  00000+0  16519-3 0  9990
2 58660  97.4518 308.9554 0004237 212.5148 147.5833 15.31939623141058
TIANMU-1 20             
1 58661U 23208B   26192.47679834  .00005156  00000+0  16355-3 0  9998
2 58661  97.4460 309.5693 0006004 226.9499 133.1241 15.33128246141145
