OBJECT_NAME,OBJECT_ID,EPOCH,MEAN_MOTION,ECCENTRICITY,INCLINATION,RA_OF_ASC_NODE,ARG_OF_PERICENTER,MEAN_ANOMALY,EPHEMERIS_TYPE,CLASSIFICATION_TYPE,NORAD_CAT_ID,ELEMENT_SET_NO,REV_AT_EPOCH,BSTAR,MEAN_MOTION_DOT,MEAN_MOTION_DDOT
FENGYUN 3D,2017-072A,2026-07-11T12:45:29.743200,14.19744144,.0001757,99.0138,167.3950,22.0375,338.0876,0,U,43010,999,44844,-.70852E-6,-.48E-6,0
NOAA 20 (JPSS-1),2017-073A,2026-07-11T11:02:30.168960,14.19516006,.0001243,98.7774,131.7076,127.9590,232.1698,0,U,43013,999,44791,.24766E-4,.8E-7,0
GOES 17,2018-022A,2026-07-11T11:25:16.578912,1.00270706,.0000613,0.9965,85.3123,83.3466,202.5465,0,U,43226,999,3066,0,-.178E-5,0
SENTINEL-3B,2018-039A,2026-07-11T04:10:42.644352,14.26741288,.0001055,98.6238,259.3610,120.7417,239.3868,0,U,43437,999,42754,.33847E-4,.38E-6,0
FENGYUN 2H,2018-050A,2026-07-11T12:13:26.961312,1.00267567,.0002242,3.0900,78.7923,131.1998,341.9743,0,U,43491,999,2968,0,-.125E-5,0
METOP-C,2018-087A,2026-07-11T11:49:05.088864,14.21518411,.0002227,98.6632,251.6503,98.4384,261.7046,0,U,43689,999,39828,.40096E-4,.44E-6,0
GEO-KOMPSAT-2A,2018-100A,2026-07-11T12:27:25.574400,1.00271575,.0001959,0.0256,120.8523,340.5295,143.1666,0,U,43823,999,2787,0,-.338E-5,0
METEOR-M2 2,2019-038A,2026-07-11T13:11:41.701344,14.24372343,.000098,98.9157,180.1956,11.0200,349.0999,0,U,44387,999,36476,.33244E-4,.31E-6,0
ARKTIKA-M 1,2021-016A,2026-07-07T10:17:34.884672,2.00614486,.72950864,63.2524,54.6812,270.0380,14.5466,0,U,47719,999,3919,0,-.257E-5,0
FENGYUN 3E,2021-062A,2026-07-11T12:18:23.376384,14.19905764,.0002463,98.7502,195.6495,45.4320,314.7057,0,U,49008,999,26003,-.22656E-5,-.49E-6,0
GOES 18,2022-021A,2026-07-11T12:04:38.583840,1.00272491,.0000603,0.0106,96.7463,96.0492,140.7726,0,U,51850,999,683,0,.102E-5,0
NOAA 21 (JPSS-2),2022-150A,2026-07-11T11:49:05.888064,14.19540676,.0002751,98.7061,130.8734,110.9885,249.1586,0,U,54234,999,18999,.2335E-4,.6E-7,0
METEOSAT-12 (MTG-I1),2022-170C,2026-07-11T08:41:38.595264,1.00266926,.0003789,0.7209,19.0127,82.9950,317.4095,0,U,54743,999,1322,0,-.2E-7,0
TIANMU-1 03,2023-039A,2026-07-11T11:46:29.188704,15.47973107,.0002894,97.5237,7.4249,36.4923,323.6524,0,U,55973,999,18459,.18103E-3,.9356E-4,0
TIANMU-1 04,2023-039B,2026-07-11T12:50:36.724128,15.48595695,.000338,97.5170,6.6271,26.6434,333.4990,0,U,55974,999,18461,.18343E-3,.9691E-4,0
TIANMU-1 05,2023-039C,2026-07-11T12:53:35.748384,15.47897033,.0003294,97.5217,7.0794,55.1305,305.0254,0,U,55975,999,18458,.18405E-3,.9489E-4,0
TIANMU-1 06,2023-039D,2026-07-11T12:57:43.697376,15.48493447,.0003397,97.5223,7.7428,47.8826,312.2713,0,U,55976,999,18461,.18429E-3,.9702E-4,0
FENGYUN 3G,2023-055A,2026-07-11T13:17:51.713664,15.53678340,.0007133,49.9911,220.3676,39.5299,320.6188,0,U,56232,999,18379,.21546E-3,.13614E-3,0
METEOR-M2 3,2023-091A,2026-07-11T11:30:26.180352,14.24048739,.000515,98.6070,246.9592,98.6425,261.5338,0,U,57166,999,15797,.11377E-4,-.17E-6,0
TIANMU-1 07,2023-101A,2026-07-11T11:54:00.488736,15.30088324,.0003977,97.2586,242.6079,72.2134,287.9540,0,U,57399,999,16536,.13584E-3,.3882E-4,0
TIANMU-1 08,2023-101B,2026-07-11T11:05:52.675008,15.30091836,.0004927,97.2574,242.3422,56.4277,303.7434,0,U,57400,999,16535,.13559E-3,.3875E-4,0
TIANMU-1 09,2023-101C,2026-07-11T12:15:21.976992,15.30132272,.0004574,97.2532,241.7928,73.1076,287.0667,0,U,57401,999,16536,.13653E-3,.3907E-4,0
TIANMU-1 10,2023-101D,2026-07-11T11:29:24.324864,15.30105285,.0005926,97.2611,242.8369,64.3030,295.8822,0,U,57402,999,16535,.13623E-3,.3896E-4,0
FENGYUN 3F,2023-111A,2026-07-11T11:54:23.361408,14.19943035,.0001344,98.6827,262.0508,78.1023,282.0304,0,U,57490,999,15231,.22941E-4,.5E-7,0
ARKTIKA-M 2,2023-198A,2026-07-10T04:34:00.609312,2.00608615,.6909064,63.2187,151.7914,267.3543,18.7503,0,U,58584,999,1878,0,.186E-5,0
TIANMU-1 11,2023-205A,2026-07-11T11:51:48.909312,15.27240628,.0006752,97.3445,213.6724,278.7399,81.3076,0,U,58645,999,14123,.12395E-3,.3237E-4,0
TIANMU-1 12,2023-205B,2026-07-11T12:45:50.330592,15.27071626,.0005576,97.3433,213.4577,251.1391,108.9244,0,U,58646,999,14122,.13204E-3,.3434E-4,0
TIANMU-1 13,2023-205C,2026-07-11T11:59:36.610656,15.27063990,.0005439,97.3461,213.7047,228.0025,132.0751,0,U,58647,999,14121,.12747E-3,.3312E-4,0
TIANMU-1 14,2023-205D,2026-07-11T13:11:38.731776,15.27108013,.0006116,97.3396,212.9168,235.8386,124.2274,0,U,58648,999,14122,.12945E-3,.3369E-4,0
TIANMU-1 19,2023-208A,2026-07-11T12:33:19.950912,15.31939623,.0004237,97.4518,308.9554,212.5148,147.5833,0,U,58660,999,14105,.16519E-3,.5015E-4,0
TIANMU-1 20,2023-208B,2026-07-11T11:26:35.376576,15.33128246,.0006004,97.4460,309.5693,226.9499,133.1241,0,U,58661,999,14114,.16355E-3,.5156E-4,0
